{
    "links": {
        "self": "http://www.neowsapp.com/rest/v1/neo/3837823?api_key=iIulBulltgU6a56xZRHN4H3l9WmuAYTsLGpBGhQ2"
    },
    "id": "3837823",
    "neo_reference_id": "3837823",
    "name": "(2019 AJ10)",
    "designation": "2019 AJ10",
    "nasa_jpl_url": "http://ssd.jpl.nasa.gov/sbdb.cgi?sstr=3837823",
    "absolute_magnitude_h": 21.6,
    "estimated_diameter": {
        "kilometers": {
            "estimated_diameter_min": 0.1272198785,
            "estimated_diameter_max": 0.2844722965
        },
        "meters": {
            "estimated_diameter_min": 127.2198785394,
            "estimated_diameter_max": 284.4722965033
        },
        "miles": {
            "estimated_diameter_min": 0.0790507431,
            "estimated_diameter_max": 0.1767628354
        },
        "feet": {
            "estimated_diameter_min": 417.3880663071,
            "estimated_diameter_max": 933.3080892598
        }
    },
    "is_potentially_hazardous_asteroid": false,
    "close_approach_data": [
        {
            "close_approach_date": "2019-01-06",
            "close_approach_date_full": "2019-Jan-06 00:16",
            "epoch_date_close_approach": 1546733760000,
            "relative_velocity": {
                "kilometers_per_second": "20.5016451947",
                "kilometers_per_hour": "73805.9227008649",
                "miles_per_hour": "45860.1301359902"
            },
            "miss_distance": {
                "astronomical": "0.2303863401",
                "lunar": "89.6202862989",
                "kilometers": "34465305.756055587",
                "miles": "21415747.9353856206"
            },
            "orbiting_body": "Earth"
        }
    ],
    "orbital_data": {
        "orbit_id": "1",
        "orbit_determination_date": "2019-01-14 04:42:06",
        "first_observation_date": "2019-01-11",
        "last_observation_date": "2019-01-14",
        "data_arc_in_days": 3,
        "observations_used": 23,
        "orbit_uncertainty": "9",
        "minimum_orbit_intersection": ".185422",
        "jupiter_tisserand_invariant": "3.231",
        "epoch_osculation": "2458495.5",
        "eccentricity": ".4856794880669634",
        "semi_major_axis": "2.264978003654843",
        "inclination": "35.91816859942156",
        "ascending_node_longitude": "287.2779315030612",
        "orbital_period": "1245.071837772667",
        "perihelion_distance": "1.164924646356826",
        "perihelion_argument": "188.8680440312917",
        "aphelion_distance": "3.36503136095286",
        "perihelion_time": "2458492.838595518254",
        "mean_anomaly": ".7695183397148661",
        "mean_motion": ".2891399428357571",
        "equinox": "J2000",
        "orbit_class": {
            "orbit_class_type": "AMO",
            "orbit_class_description": "Near-Earth asteroid orbits similar to that of 1221 Amor",
            "orbit_class_range": "1.017 AU < q (perihelion) < 1.3 AU"
        }
    },
    "is_sentry_object": false
}